NORAD_CAT_ID,OBJECT_NAME,OBJECT_TYPE,EPOCH,MEAN_MOTION,ECCENTRICITY,INCLINATION,RA_OF_ASC_NODE,ARG_OF_PERICENTER,MEAN_ANOMALY,BSTAR,MEAN_MOTION_DOT,MEAN_MOTION_DDOT,TLE_LINE0,TLE_LINE1,TLE_LINE2,SEMIMAJOR_AXIS,PERIOD,APOGEE,PERIGEE,DECAYED
54096.0,STARLINK-5188,PAYLOAD,2023-03-27 14:38:33,15.08884768,0.000143,53.2167,133.5963,76.2827,283.8324,0.0014918,0.00023563,0.0,0 STARLINK-5188,1 54096U 22136AX  23086.61011295  .00023563  00000-0  14918-2 0  9996,2 54096  53.2167 133.5963 0001430  76.2827 283.8324 15.08884768 24708,6917.744,95.435,540.598,538.619,0.0
54096.0,STARLINK-5188,PAYLOAD,2023-03-28 06:32:24,15.08864956,0.0001184,53.216,130.625,79.2874,280.8251,0.0010817,0.00016981,0.0,0 STARLINK-5188,1 54096U 22136AX  23087.27250785  .00016981  00000-0  10817-2 0  9998,2 54096  53.2160 130.6250 0001184  79.2874 280.8251 15.08864956 24803,6917.804,95.436,540.488,538.85,0.0
54096.0,STARLINK-5188,PAYLOAD,2023-03-28 09:43:10,15.08868245,0.0001281,53.2159,130.0296,90.4781,269.6358,0.0010486,0.00016453,0.0,0 STARLINK-5188,1 54096U 22136AX  23087.40498503  .00016453  00000-0  10486-2 0  9991,2 54096  53.2159 130.0296 0001281  90.4781 269.6358 15.08868245 24353,6917.794,95.436,540.545,538.773,0.0
54096.0,STARLINK-5188,PAYLOAD,2023-03-28 19:15:30,15.0883218,0.000248,53.217,128.2406,76.3936,283.7332,-0.0006324,-0.00010337,0.0,0 STARLINK-5188,1 54096U 22136AX  23087.80243056 -.00010337  00000-0 -63240-3 0  9990,2 54096  53.2170 128.2406 0002480  76.3936 283.7332 15.08832180 24881,6917.904,95.438,541.485,538.054,0.0
54096.0,STARLINK-5188,PAYLOAD,2023-03-29 06:23:11,15.08836178,0.0001216,53.2159,126.1628,93.8739,266.2392,0.00033035,4.973e-05,0.0,0 STARLINK-5188,1 54096U 22136AX  23088.26610833  .00004973  00000-0  33035-3 0  9998,2 54096  53.2159 126.1628 0001216  93.8739 266.2392 15.08836178 24953,6917.892,95.438,540.598,538.916,0.0
54096.0,STARLINK-5188,PAYLOAD,2023-03-29 07:58:34,15.08840129,0.0001366,53.216,125.8655,98.8856,261.2291,0.0007031,0.0001092,0.0,0 STARLINK-5188,1 54096U 22136AX  23088.33234845  .00010920  00000-0  70310-3 0  9997,2 54096  53.2160 125.8655 0001366  98.8856 261.2291 15.08840129 24495,6917.88,95.438,540.69,538.8,0.0
54096.0,STARLINK-5188,PAYLOAD,2023-03-29 14:20:07,15.08847985,0.0001468,53.2162,124.6756,115.0962,245.0183,0.001174,0.0001845,0.0,0 STARLINK-5188,1 54096U 22136AX  23088.59730861  .00018450  00000-0  11740-2 0  9991,2 54096  53.2162 124.6756 0001468 115.0962 245.0183 15.08847985 25004,6917.856,95.437,540.737,538.705,0.0
54096.0,STARLINK-5188,PAYLOAD,2023-03-30 03:03:13,15.08836722,0.0002041,53.2153,122.2962,111.923,248.1979,0.0014289,0.00022524,0.0,0 STARLINK-5188,1 54096U 22136AX  23089.12723609  .00022524  00000-0  14289-2 0  9991,2 54096  53.2153 122.2962 0002041 111.9230 248.1979 15.08836722 25080,6917.89,95.438,541.167,538.343,0.0
54096.0,STARLINK-5188,PAYLOAD,2023-03-30 12:35:32,15.08845588,0.0001244,53.2155,120.5133,99.0234,261.0899,0.0010419,0.00016335,0.0,0 STARLINK-5188,1 54096U 22136AX  23089.52467631  .00016335  00000-0  10419-2 0  9999,2 54096  53.2155 120.5133 0001244  99.0234 261.0899 15.08845588 25149,6917.863,95.437,540.589,538.868,0.0
54096.0,STARLINK-5188,PAYLOAD,2023-03-31 14:01:42,15.08852699,0.0001742,53.2161,115.7545,73.0079,287.1104,0.00092787,0.00014515,0.0,0 STARLINK-5188,1 54096U 22136AX  23090.58451930  .00014515  00000-0  92787-3 0  9999,2 54096  53.2161 115.7545 0001742  73.0079 287.1104 15.08852699 25308,6917.842,95.437,540.912,538.501,0.0
54096.0,STARLINK-5188,PAYLOAD,2023-03-31 18:47:51,15.08841006,0.0001327,53.2145,114.8602,86.9167,273.1977,0.00034888,5.269e-05,0.0,0 STARLINK-5188,1 54096U 22136AX  23090.78324035  .00005269  00000-0  34888-3 0  9990,2 54096  53.2145 114.8602 0001327  86.9167 273.1977 15.08841006 25330,6917.877,95.437,540.66,538.824,0.0
54096.0,STARLINK-5188,PAYLOAD,2023-04-01 09:06:20,15.08836856,0.0001492,53.2163,112.1888,78.9441,281.1719,0.00013067,1.792e-05,0.0,0 STARLINK-5188,1 54096U 22136AX  23091.37940536  .00001792  00000-0  13067-3 0  9999,2 54096  53.2163 112.1888 0001492  78.9441 281.1719 15.08836856 24953,6917.89,95.438,540.787,538.723,0.0
54096.0,STARLINK-5188,PAYLOAD,2023-04-01 18:38:39,15.08838586,0.0001565,53.2163,110.4037,79.9976,280.1193,0.00015212,2.134e-05,0.0,0 STARLINK-5188,1 54096U 22136AX  23091.77684420  .00002134  00000-0  15212-3 0  9995,2 54096  53.2163 110.4037 0001565  79.9976 280.1193 15.08838586 25481,6917.885,95.438,540.832,538.667,0.0
54096.0,STARLINK-5188,PAYLOAD,2023-04-02 12:07:53,15.08852035,0.0001394,53.2157,107.132,86.0125,274.1026,0.00046278,7.087e-05,0.0,0 STARLINK-5188,1 54096U 22136AX  23092.50548006  .00007087  00000-0  46278-3 0  9994,2 54096  53.2157 107.1320 0001394  86.0125 274.1026 15.08852035 25121,6917.844,95.437,540.673,538.744,0.0
54096.0,STARLINK-5188,PAYLOAD,2023-04-03 05:37:08,15.08847036,0.0001313,53.2151,103.8614,88.8465,271.2677,0.00024066,3.545e-05,0.0,0 STARLINK-5188,1 54096U 22136AX  23093.23412123  .00003545  00000-0  24066-3 0  9991,2 54096  53.2151 103.8614 0001313  88.8465 271.2677 15.08847036 25701,6917.859,95.437,540.632,538.816,0.0
54096.0,STARLINK-5188,PAYLOAD,2023-04-03 11:58:40,15.08851992,0.0001284,53.2155,102.6707,91.2621,268.8518,0.00031832,4.783e-05,0.0,0 STARLINK-5188,1 54096U 22136AX  23093.49907836  .00004783  00000-0  31832-3 0  9993,2 54096  53.2155 102.6707 0001284  91.2621 268.8518 15.08851992 25278,6917.844,95.437,540.597,538.82,0.0
54096.0,STARLINK-5188,PAYLOAD,2023-04-04 05:27:54,15.08843718,0.0001433,53.2157,99.3984,102.808,257.3072,8.9274e-05,1.133e-05,0.0,0 STARLINK-5188,1 54096U 22136AX  23094.22771976  .00001133  00000-0  89274-4 0  9999,2 54096  53.2157  99.3984 0001433 102.8080 257.3072 15.08843718 25852,6917.869,95.437,540.725,538.743,0.0
54096.0,STARLINK-5188,PAYLOAD,2023-04-04 11:49:27,15.08848073,0.0001443,53.2158,98.2086,110.769,249.3457,0.00013806,1.91e-05,0.0,0 STARLINK-5188,1 54096U 22136AX  23094.49267658  .00001910  00000-0  13806-3 0  9995,2 54096  53.2158  98.2086 0001443 110.7690 249.3457 15.08848073 25420,6917.856,95.437,540.719,538.722,0.0
54096.0,STARLINK-5188,PAYLOAD,2023-04-05 05:18:42,15.08835191,0.0001495,53.2164,94.939,113.5612,246.5538,-4.1983e-05,-9.56e-06,0.0,0 STARLINK-5188,1 54096U 22136AX  23095.22132359 -.00000956  00000-0 -41983-4 0  9995,2 54096  53.2164  94.9390 0001495 113.5612 246.5538 15.08835191 26001,6917.895,95.438,540.794,538.726,0.0
54096.0,STARLINK-5188,PAYLOAD,2023-04-05 11:40:15,15.08835823,0.0001277,53.2161,93.7481,101.2125,258.901,2.4133e-05,9.6e-07,0.0,0 STARLINK-5188,1 54096U 22136AX  23095.48628482  .00000096  00000-0  24133-4 0  9991,2 54096  53.2161  93.7481 0001277 101.2125 258.9010 15.08835823 25572,6917.893,95.438,540.642,538.875,0.0
54096.0,STARLINK-5188,PAYLOAD,2023-04-06 08:20:15,15.08853247,0.0001192,53.2155,89.8849,88.9598,271.1531,0.00060636,9.379e-05,0.0,0 STARLINK-5188,1 54096U 22136AX  23096.34740300  .00009379  00000-0  60636-3 0  9991,2 54096  53.2155  89.8849 0001192  88.9598 271.1531 15.08853247 26172,6917.84,95.437,540.53,538.88,0.0
54096.0,STARLINK-5188,PAYLOAD,2023-04-06 16:17:11,15.08841048,0.0001484,53.2159,88.3978,94.9689,265.1473,0.0002829,4.217e-05,0.0,0 STARLINK-5188,1 54096U 22136AX  23096.67860720  .00004217  00000-0  28290-3 0  9992,2 54096  53.2159  88.3978 0001484  94.9689 265.1473 15.08841048 26225,6917.877,95.437,540.769,538.716,0.0
54096.0,STARLINK-5188,PAYLOAD,2023-04-07 08:11:02,15.08842828,0.0001364,53.2168,85.4233,95.9451,264.1697,0.0001259,1.716e-05,0.0,0 STARLINK-5188,1 54096U 22136AX  23097.34100552  .00001716  00000-0  12590-3 0  9994,2 54096  53.2168  85.4233 0001364  95.9451 264.1697 15.08842828 25854,6917.872,95.437,540.68,538.793,0.0
54096.0,STARLINK-5188,PAYLOAD,2023-04-08 04:51:03,15.08844936,0.0001473,53.2167,81.5595,106.2476,253.8679,-0.00019328,-3.363e-05,0.0,0 STARLINK-5188,1 54096U 22136AX  23098.20212411 -.00003363  00000-0 -19328-3 0  9996,2 54096  53.2167  81.5595 0001473 106.2476 253.8679 15.08844936 26459,6917.865,95.437,540.749,538.711,0.0
54096.0,STARLINK-5188,PAYLOAD,2023-04-08 11:12:37,15.08819136,0.0001886,53.2166,80.3732,56.0558,304.0613,-0.00024326,-4.155e-05,0.0,0 STARLINK-5188,1 54096U 22136AX  23098.46709859 -.00004155  00000-0 -24326-3 0  9995,2 54096  53.2166  80.3732 0001886  56.0558 304.0613 15.08819136 26494,6917.944,95.439,541.114,538.504,0.0
54096.0,STARLINK-5188,PAYLOAD,2023-04-08 15:58:47,15.08809054,0.0001227,53.2167,79.4787,80.8404,279.2727,-0.00035877,-5.988e-05,0.0,0 STARLINK-5188,1 54096U 22136AX  23098.66582936 -.00005988  00000-0 -35877-3 0  9990,2 54096  53.2167  79.4787 0001227  80.8404 279.2727 15.08809054 26529,6917.975,95.44,540.689,538.991,0.0
54096.0,STARLINK-5188,PAYLOAD,2023-04-09 07:52:38,15.08836534,0.0001518,53.217,76.5046,80.0002,280.1161,0.00017843,2.553e-05,0.0,0 STARLINK-5188,1 54096U 22136AX  23099.32822418  .00002553  00000-0  17843-3 0  9992,2 54096  53.2170  76.5046 0001518  80.0002 280.1161 15.08836534 26625,6917.891,95.438,540.806,538.706,0.0
54096.0,STARLINK-5188,PAYLOAD,2023-04-09 15:49:34,15.08843515,0.0001652,53.2185,75.0197,76.3508,283.7668,0.00048749,7.48e-05,0.0,0 STARLINK-5188,1 54096U 22136AX  23099.65942461  .00007480  00000-0  48749-3 0  9992,2 54096  53.2185  75.0197 0001652  76.3508 283.7668 15.08843515 26202,6917.87,95.437,540.877,538.592,0.0
54096.0,STARLINK-5188,PAYLOAD,2023-04-10 07:43:24,15.08869013,0.0001287,53.2166,72.0415,83.1317,276.9822,0.0007921,0.00012351,0.0,0 STARLINK-5188,1 54096U 22136AX  23100.32181232  .00012351  00000-0  79210-3 0  9990,2 54096  53.2166  72.0415 0001287  83.1317 276.9822 15.08869013 26778,6917.792,95.436,540.547,538.766,0.0
54096.0,STARLINK-5188,PAYLOAD,2023-04-10 22:01:52,15.08861868,5.77e-05,53.2202,69.3674,107.1922,252.9133,0.0003497,5.285e-05,0.0,0 STARLINK-5188,1 54096U 22136AX  23100.91796682  .00005285  00000-0  34970-3 0  9998,2 54096  53.2202  69.3674 0000577 107.1922 252.9133 15.08861868 26864,6917.814,95.436,540.078,539.279,0.0
